[
    {
        "Altitude(m)": 604969.089171358,
        "Argument of Periapsis(deg)": 0.0,
        "Eccentricity": 0.0,
        "Inclination(deg)": 60.0,
        "Latitude(deg)": -0.0926899392716102,
        "Longitude(deg)": -145.02247252668292,
        "Mean Anomaly(deg)": 0.0,
        "RAAN(deg)": 315.0,
        "Satellite Name": "Test1 1386",
        "Satellite Number": 1386,
        "Semi-Major Axis(m)": 6980739.136638005,
        "Time(s)": 0
    },
    {
        "Altitude(m)": 604900.0284613678,
        "Argument of Periapsis(deg)": 0.00010418945913296404,
        "Eccentricity": 0.0,
        "Inclination(deg)": 60.0,
        "Latitude(deg)": 0.4477355708046634,
        "Longitude(deg)": -144.75434873091277,
        "Mean Anomaly(deg)": 0.620106145461853,
        "RAAN(deg)": 314.99957995086027,
        "Satellite Name": "Test1 1386",
        "Satellite Number": 1386,
        "Semi-Major Axis(m)": 6980739.136638005,
        "Time(s)": 10
    }
]